ONEWEB-0656             
1 55817U 23029X   25134.95062831  .00000062  00000+0  12114-3 0  9990
2 55817  87.9283 353.7221 0002253  80.1067 280.0320 13.20773574108588
ONEWEB-0657             
1 55818U 23029Y   25135.18644264  .00000125  00000+0  28113-3 0  9999
2 55818  87.9253  24.1075 0002512  92.0711 268.0709 13.19724111107091
ONEWEB-0658             
1 55819U 23029Z   25134.72680704  .00000038  00000+0  61713-4 0  9995
2 55819  87.9253  24.1324 0001464  93.8599 266.2701 13.19723367106360
ONEWEB-0660             
1 55820U 23029AA  25134.95452599  .00000207  00000+0  52446-3 0  9991
2 55820  87.9066   8.9017 0001464  75.6430 284.4862 13.14501399107089
ONEWEB-0661             
1 55821U 23029AB  25134.98943418 -.00000132  00000+0 -39143-3 0  9998
2 55821  87.9065   8.9649 0001520  72.3956 287.7340 13.14504562107767
ONEWEB-0662             
1 55822U 23029AC  25134.64370599  .00000256  00000+0  65526-3 0  9995
2 55822  87.9067   9.0407 0001407  78.0862 282.0425 13.14501178107073
ONEWEB-0663             
1 55823U 23029AD  25134.63037073  .00000085  00000+0  17807-3 0  9991
2 55823  87.9283 353.8417 0001346  85.0463 275.0824 13.20836694108530
ONEWEB-0664             
1 55824U 23029AE  25134.63499356  .00000040  00000+0  66013-4 0  9993
2 55824  87.9286 353.8611 0001852  71.9182 288.2153 13.20770332108531
